[{"OBJECT_NAME":"OBJECT AD","OBJECT_ID":"2023-085AD","EPOCH":"2026-03-09T21:41:29.115744","MEAN_MOTION":15.31779154,"ECCENTRICITY":0.00101154,"INCLINATION":97.4841,"RA_OF_ASC_NODE":180.2223,"ARG_OF_PERICENTER":77.5993,"MEAN_ANOMALY":282.638,"EPHEMERIS_TYPE":0,"CLASSIFICATION_TYPE":"U","NORAD_CAT_ID":57031,"ELEMENT_SET_NO":999,"REV_AT_EPOCH":15156,"BSTAR":0.00068352515,"MEAN_MOTION_DOT":0.00020961,"MEAN_MOTION_DDOT":0},{"OBJECT_NAME":"STARLINK-36032","OBJECT_ID":"2025-270G","EPOCH":"2026-03-09T22:49:57.193824","MEAN_MOTION":15.27608578,"ECCENTRICITY":0.0001142,"INCLINATION":43.0059,"RA_OF_ASC_NODE":54.896,"ARG_OF_PERICENTER":192.8941,"MEAN_ANOMALY":167.1882,"EPHEMERIS_TYPE":0,"CLASSIFICATION_TYPE":"U","NORAD_CAT_ID":66594,"ELEMENT_SET_NO":999,"REV_AT_EPOCH":1755,"BSTAR":0.0014897181,"MEAN_MOTION_DOT":0.00040995,"MEAN_MOTION_DDOT":0}]
